{"spkid": "20053550", "covariance": {"epoch": "2459104.5", "labels": ["e", "q", "tp", "node", "peri", "i"], "data": [["6.167718242000647E-16", "-9.25618516481204E-16", "-7.336014056631389E-14", "-2.807900713351773E-15", "-1.563403416479429E-14", "-2.547298564208962E-16"], ["-9.25618516481204E-16", "1.390376334009966E-15", "1.063809488617414E-13", "3.514607060409305E-15", "2.240468485090796E-14", "3.955164300520706E-16"], ["-7.336014056631389E-14", "1.063809488617414E-13", "8.116564360837853E-11", "-3.581612755434292E-14", "4.296553014118112E-11", "2.292063583256603E-12"], ["-2.807900713351773E-15", "3.514607060409305E-15", "-3.581612755434292E-14", "1.004843705683815E-9", "-9.98726982788976E-10", "4.757720995871108E-11"], ["-1.563403416479429E-14", "2.240468485090796E-14", "4.296553014118112E-11", "-9.98726982788976E-10", "1.022193822939715E-9", "-4.609114872891578E-11"], ["-2.547298564208962E-16", "3.955164300520706E-16", "2.292063583256603E-12", "4.757720995871108E-11", "-4.609114872891578E-11", "1.42364258852336E-11"]], "elements": [{"label": "e", "name": "e", "sigma": 2.48348912661212e-08, "title": "eccentricity", "value": ".4196777327893444", "units": null}, {"label": "q", "units": "au", "value": ".867775682880865", "title": "perihelion distance", "name": "q", "sigma": 3.72877504552094e-08}, {"label": "tp", "units": "TDB", "title": "time of perihelion passage", "value": "2459139.934837355279", "name": "tp", "sigma": 9.009197722793e-06}, {"units": "deg", "title": "longitude of the ascending node", "value": "313.21550418876", "sigma": 3.16992697973284e-05, "name": "om", "label": "node"}, {"label": "peri", "title": "argument of perihelion", "value": "324.915020889984", "units": "deg", "sigma": 3.19717660278521e-05, "name": "w"}, {"label": "i", "sigma": 3.77311885384407e-06, "name": "i", "units": "deg", "title": "inclination", "value": "7.176084634336051"}]}, "elements": [{"label": "e", "units": null, "title": "eccentricity", "value": ".4197554618527413", "name": "e", "sigma": "2.4875E-8"}, {"sigma": "1.9936E-9", "name": "a", "units": "au", "value": "1.49518576569488", "title": "semi-major axis", "label": "a"}, {"name": "q", "sigma": "3.7267E-8", "units": "au", "title": "perihelion distance", "value": ".8675733740599811", "label": "q"}, {"label": "i", "name": "i", "sigma": "3.7736E-6", "units": "deg", "title": "inclination; angle with respect to x-y ecliptic plane", "value": "7.179047051384453"}, {"value": "313.11257533", "title": "longitude of the ascending node", "units": "deg", "name": "om", "sigma": "3.1698E-5", "label": "node"}, {"title": "argument of perihelion", "value": "325.0490807954017", "units": "deg", "name": "w", "sigma": "3.1967E-5", "label": "peri"}, {"name": "ma", "sigma": "4.6596E-6", "title": "mean anomaly", "value": "30.5612773157517", "units": "deg", "label": "M"}, {"label": "tp", "units": "TDB", "title": "time of perihelion passage", "value": "2461143.809516810209", "name": "tp", "sigma": "8.624E-6"}, {"units": "d", "value": "667.7919164656797", "title": "sidereal orbital period", "name": "per", "sigma": "1.3356E-6", "label": "period"}, {"name": "n", "sigma": "1.0782E-9", "value": ".539090083487858", "title": "mean motion", "units": "deg/d", "label": "n"}, {"label": "Q", "value": "2.122798157329779", "title": "aphelion distance", "units": "au", "sigma": "2.8304E-9", "name": "ad"}], "epoch": "2461200.5"}